TOMORROW-S2             
1 60485U 24149T   26068.75188364  .00008133  00000+0  27683-3 0  9990
2 60485  97.3857 150.0385 0001648 234.3331 125.7757 15.30674935 86869
STARLINK-35586          
1 66159U 25240P   26068.29093848  .00027681  00000+0  94324-3 0  9993
2 66159  53.1591  64.9288 0001200  82.9425 277.1712 15.30199855 21920
